TIANWANG 1C (TW-1C)     
1 40926U 15051B   17127.39578053  .00005914  00000-0  13993-3 0  9998
2 40926  97.2341 167.2809 0010593 324.4296 154.4815 15.42125294 90631
TIANWANG 1B (TW-1B)     
1 40927U 15051C   17127.57330760  .00005691  00000-0  13967-3 0  9993
2 40927  97.2430 167.4919 0010588 335.3794 178.9833 15.41036095 90611
TIANWANG 1A (TW-1A)     
1 40928U 15051D   17127.37470852  .00002943  00000-0  86546-4 0  9990
2 40928  97.2316 163.9243 0012477 354.0049 121.8946 15.35818909 90433
LAPAN-A2 (IO-86)        
1 40931U 15052B   17127.51378104  .00000728  00000-0  12366-4 0  9996
2 40931   5.9988 162.7270 0013384  25.5929 334.4855 14.76526641 86945
LQSAT                   
1 40958U 15057A   17127.55714480  .00000039  00000-0  13924-4 0  9991
2 40958  97.9791 203.5819 0017735 192.3152 167.7626 14.72961154 85136
CHUBUSAT-2              
1 41338U 16012B   17127.02062175  .00000367  00000-0  22195-4 0  9999
2 41338  31.0044  13.7059 0013865  11.4578 348.6371 14.99717260 66805
CHUBUSAT-3              
1 41339U 16012C   17127.02104644  .00000403  00000-0  24913-4 0  9999
2 41339  31.0123  12.9135 0013527  16.9929 343.1146 14.99924943 66780
OUFTI-1                 
1 41458U 16025C   17127.63712499  .00002583  00000-0  14135-3 0  9990
2 41458  98.1902 162.8831 0175647  65.4580 296.4838 15.03005292 56491
E-ST@R-II               
1 41459U 16025D   17127.58735818  .00001959  00000-0  10850-3 0  9991
2 41459  98.1888 162.7946 0176431  65.7070 296.2458 15.02845385 56478
AAUSAT 4                
1 41460U 16025E   17127.54136330  .00002706  00000-0  14785-3 0  9995
2 41460  98.1833 162.8300 0170229  64.6322 297.2416 15.03685436 56488
NUSAT 1 (LO-87)         
1 41557U 16033B   17127.25345848  .00001245  00000-0  49811-4 0  9991
2 41557  97.4644 206.7716 0015346 146.8449 213.3755 15.26901652 52181
BEESAT-4                
1 41619U 16040W   17127.13053342  .00001305  00000-0  62642-4 0  9994
2 41619  97.4658 189.9101 0011497 204.3866 155.6827 15.20592275 36351
PRATHAM                 
1 41783U 16059A   17127.12011445  .00000051  00000-0  19445-4 0  9993
2 41783  98.1705 188.9099 0032320 290.3438  69.4292 14.62828817 32596
ALSAT 1N                
1 41789U 16059G   17127.41595280  .00000084  00000-0  25236-4 0  9996
2 41789  98.1698 189.6248 0027081 283.9443  75.8753 14.64036999 32642
NAYIF-1 (EO-88)         
1 42017U 17008BX  17127.56504905  .00001478  00000-0  66235-4 0  9998
2 42017  97.4987 189.0957 0006859  18.5492 341.5993 15.22815436 12303
